0 TITAN 3C TRANSTAGE DEB
1 36980U 65108DL  13276.48640578  .00000053  00000-0  59960-3 0   921
2 36980 027.0098 347.3372 6788063 349.9793 001.5709 02.70406514955274
0 TITAN 3C TRANSTAGE DEB
1 36980U 65108DL  13276.50170235 -.00000062  00000-0  44447-3 0   927
2 36980 027.0035 347.2090 6786855 350.1160 016.4595 02.70406125 80141
0 TITAN 3C TRANSTAGE DEB
1 36980U 65108DL  13284.62150092 -.00000130  00000-0  23123-3 0   933
2 36980 027.0190 343.7900 6786558 355.7839 000.7222 02.70406509 80361
0 TITAN 3C TRANSTAGE DEB
1 36980U 65108DL  13287.21598042 -.00000035  00000-0  11258-2 0   953
2 36980 026.9995 342.7372 6785665 357.5802 006.3343 02.70406730 80432
0 TITAN 3C TRANSTAGE DEB
1 36980U 65108DL  13290.17307644 -.00000036  00000-0  67931-3 0   960
2 36980 026.9986 341.5059 6785538 359.6343 004.9425 02.70407821 80519
